NORAD_CAT_ID,OBJECT_NAME,OBJECT_TYPE,EPOCH,MEAN_MOTION,ECCENTRICITY,INCLINATION,RA_OF_ASC_NODE,ARG_OF_PERICENTER,MEAN_ANOMALY,BSTAR,MEAN_MOTION_DOT,MEAN_MOTION_DDOT,TLE_LINE0,TLE_LINE1,TLE_LINE2,SEMIMAJOR_AXIS,PERIOD,APOGEE,PERIGEE,DECAYED
53407.0,STARLINK-4537,PAYLOAD,2023-12-25 15:05:22,15.08840804,0.0001529,53.2183,118.4166,108.0063,252.1096,9.8781e-05,1.284e-05,0.0,0 STARLINK-4537,1 53407U 22097V   23359.62873757  .00001284  00000-0  98781-4 0  9998,2 53407  53.2183 118.4166 0001529 108.0063 252.1096 15.08840804 77259,6917.878,95.438,540.801,538.685,0.0
53407.0,STARLINK-4537,PAYLOAD,2023-12-26 11:45:24,15.0884116,0.0001822,53.2187,114.5509,111.9126,248.206,-0.00014161,-2.541e-05,0.0,0 STARLINK-4537,1 53407U 22097V   23360.48986767 -.00002541  00000-0 -14161-3 0  9998,2 53407  53.2187 114.5509 0001822 111.9126 248.2060 15.08841160 76892,6917.877,95.437,541.002,538.481,0.0
53407.0,STARLINK-4537,PAYLOAD,2023-12-26 13:20:47,15.08832104,0.0001517,53.2184,114.2534,105.0594,255.0566,-3.2286e-05,-8.02e-06,0.0,0 STARLINK-4537,1 53407U 22097V   23360.55610999 -.00000802  00000-0 -32286-4 0  9994,2 53407  53.2184 114.2534 0001517 105.0594 255.0566 15.08832104 77399,6917.905,95.438,540.819,538.72,0.0
53407.0,STARLINK-4537,PAYLOAD,2023-12-26 14:56:11,15.08831838,0.000145,53.2183,113.9563,101.7967,258.3188,-2.8412e-05,-7.4e-06,0.0,0 STARLINK-4537,1 53407U 22097V   23360.62235037 -.00000740  00000-0 -28412-4 0  9995,2 53407  53.2183 113.9563 0001450 101.7967 258.3188 15.08831838 77400,6917.905,95.438,540.773,538.767,0.0
53407.0,STARLINK-4537,PAYLOAD,2023-12-27 11:36:11,15.08840651,0.0001374,53.2179,110.0883,101.3349,258.7798,3.0781e-05,2.02e-06,0.0,0 STARLINK-4537,1 53407U 22097V   23361.48346559  .00000202  00000-0  30781-4 0  9995,2 53407  53.2179 110.0883 0001374 101.3349 258.7798 15.08840651 77047,6917.878,95.438,540.694,538.793,0.0
53407.0,STARLINK-4537,PAYLOAD,2023-12-27 14:46:57,15.08846339,0.0001456,53.218,109.494,95.3393,264.7765,9.6785e-05,1.253e-05,0.0,0 STARLINK-4537,1 53407U 22097V   23361.61594089  .00001253  00000-0  96785-4 0  9996,2 53407  53.2180 109.4940 0001456  95.3393 264.7765 15.08846339 77553,6917.861,95.437,540.733,538.719,0.0
53407.0,STARLINK-4537,PAYLOAD,2023-12-27 16:22:20,15.08849722,0.0001552,53.2182,109.1966,103.529,256.5876,0.0001061,1.401e-05,0.0,0 STARLINK-4537,1 53407U 22097V   23361.68217802  .00001401  00000-0  10610-3 0  9995,2 53407  53.2182 109.1966 0001552 103.5290 256.5876 15.08849722 77073,6917.851,95.437,540.789,538.642,0.0
53407.0,STARLINK-4537,PAYLOAD,2023-12-28 11:26:58,15.0883219,0.0001628,53.2191,105.63,98.1559,261.9618,8.0617e-05,9.95e-06,0.0,0 STARLINK-4537,1 53407U 22097V   23362.47707145  .00000995  00000-0  80617-4 0  9999,2 53407  53.2191 105.6300 0001628  98.1559 261.9618 15.08832190 77195,6917.904,95.438,540.895,538.643,0.0
53407.0,STARLINK-4537,PAYLOAD,2023-12-28 14:37:44,15.08838554,0.0001621,53.2181,105.0337,67.5655,292.5509,0.00010489,1.382e-05,0.0,0 STARLINK-4537,1 53407U 22097V   23362.60954837  .00001382  00000-0  10489-3 0  9996,2 53407  53.2181 105.0337 0001621  67.5655 292.5509 15.08838554 77704,6917.885,95.438,540.871,538.628,0.0
53407.0,STARLINK-4537,PAYLOAD,2023-12-29 14:28:32,15.08843643,0.0001665,53.2188,100.5717,68.132,291.9849,-2.3682e-05,-6.65e-06,0.0,0 STARLINK-4537,1 53407U 22097V   23363.60315022 -.00000665  00000-0 -23682-4 0  9999,2 53407  53.2188 100.5717 0001665  68.1320 291.9849 15.08843643 77858,6917.869,95.437,540.886,538.582,0.0
53407.0,STARLINK-4537,PAYLOAD,2023-12-30 12:43:55,15.08838994,0.0001865,53.2191,96.4094,59.8139,300.3038,0.00016642,2.361e-05,0.0,0 STARLINK-4537,1 53407U 22097V   23364.53050768  .00002361  00000-0  16642-3 0  9995,2 53407  53.2191  96.4094 0001865  59.8139 300.3038 15.08838994 77993,6917.883,95.438,541.039,538.458,0.0
53407.0,STARLINK-4537,PAYLOAD,2023-12-30 15:54:41,15.08847774,0.0001806,53.2193,95.8099,61.8757,298.2417,9.327e-05,1.197e-05,0.0,0 STARLINK-4537,1 53407U 22097V   23364.66298381  .00001197  00000-0  93270-4 0  9993,2 53407  53.2193  95.8099 0001806  61.8757 298.2417 15.08847774 77528,6917.857,95.437,540.971,538.472,0.0
53407.0,STARLINK-4537,PAYLOAD,2023-12-31 10:59:19,15.08839131,0.0001363,53.2189,92.2357,89.7247,270.3901,7.2643e-06,-1.72e-06,0.0,0 STARLINK-4537,1 53407U 22097V   23365.45787028 -.00000172  00000-0  72643-5 0  9997,2 53407  53.2189  92.2357 0001363  89.7247 270.3901 15.08839131 77642,6917.883,95.438,540.691,538.805,0.0
53407.0,STARLINK-4537,PAYLOAD,2023-12-31 15:45:29,15.08839069,0.0001291,53.2178,91.3532,84.0053,276.1087,-1.2495e-07,-2.9e-06,0.0,0 STARLINK-4537,1 53407U 22097V   23365.65659134 -.00000290  00000-0 -12495-6 0  9997,2 53407  53.2178  91.3532 0001291  84.0053 276.1087 15.08839069 78165,6917.883,95.438,540.641,538.855,0.0
53407.0,STARLINK-4537,PAYLOAD,2024-01-01 12:25:29,15.08849408,0.0001389,53.2187,87.4865,98.5455,261.5694,-4.5794e-05,-1.017e-05,0.0,0 STARLINK-4537,1 53407U 22097V   24001.51770629 -.00001017  00000-0 -45794-4 0  9997,2 53407  53.2187  87.4865 0001389  98.5455 261.5694 15.08849408 78298,6917.852,95.437,540.678,538.756,0.0
53407.0,STARLINK-4537,PAYLOAD,2024-01-02 12:16:17,15.08836973,0.000142,53.2185,83.0272,99.3364,260.7789,6.1557e-05,6.92e-06,0.0,0 STARLINK-4537,1 53407U 22097V   24002.51131190  .00000692  00000-0  61557-4 0  9993,2 53407  53.2185  83.0272 0001420  99.3364 260.7789 15.08836973 77955,6917.89,95.438,540.737,538.772,0.0
53407.0,STARLINK-4537,PAYLOAD,2024-01-03 12:07:04,15.08838011,0.0001384,53.2183,78.5687,107.3167,252.7977,-2.3215e-05,-6.57e-06,0.0,0 STARLINK-4537,1 53407U 22097V   24003.50491618 -.00000657  00000-0 -23215-4 0  9999,2 53407  53.2183  78.5687 0001384 107.3167 252.7977 15.08838011 78598,6917.886,95.438,540.709,538.794,0.0
53407.0,STARLINK-4537,PAYLOAD,2024-01-04 10:22:28,15.08839456,0.0001368,53.2184,74.4072,107.0527,253.0615,5.1441e-05,5.31e-06,0.0,0 STARLINK-4537,1 53407U 22097V   24004.43227445  .00000531  00000-0  51441-4 0  9998,2 53407  53.2184  74.4072 0001368 107.0527 253.0615 15.08839456 78240,6917.882,95.438,540.693,538.801,0.0
53407.0,STARLINK-4537,PAYLOAD,2024-01-04 13:33:14,15.08840984,0.0001416,53.2186,73.813,110.4832,249.6313,6.3246e-05,7.19e-06,0.0,0 STARLINK-4537,1 53407U 22097V   24004.56475302  .00000719  00000-0  63246-4 0  9993,2 53407  53.2186  73.8130 0001416 110.4832 249.6313 15.08840984 78751,6917.877,95.437,540.722,538.763,0.0
53407.0,STARLINK-4537,PAYLOAD,2024-01-05 11:48:39,15.08836912,0.0001458,53.2185,69.6495,82.7425,277.3733,2.8614e-05,1.67e-06,0.0,0 STARLINK-4537,1 53407U 22097V   24005.49212125  .00000167  00000-0  28614-4 0  9995,2 53407  53.2185  69.6495 0001458  82.7425 277.3733 15.08836912 78404,6917.89,95.438,540.763,538.746,0.0
53407.0,STARLINK-4537,PAYLOAD,2024-01-05 13:24:01,15.08841152,0.0001428,53.2186,69.3411,83.7836,276.3318,6.2745e-05,7.11e-06,0.0,0 STARLINK-4537,1 53407U 22097V   24005.55835638  .00000711  00000-0  62745-4 0  9990,2 53407  53.2186  69.3411 0001428  83.7836 276.3318 15.08841152 78909,6917.877,95.437,540.73,538.754,0.0
53407.0,STARLINK-4537,PAYLOAD,2024-01-06 10:04:02,15.08840305,0.0001601,53.2182,65.4842,120.3268,239.7883,5.9355e-05,6.57e-06,0.0,0 STARLINK-4537,1 53407U 22097V   24006.41947562  .00000657  00000-0  59355-4 0  9998,2 53407  53.2182  65.4842 0001601 120.3268 239.7883 15.08840305 78549,6917.879,95.438,540.852,538.637,0.0
53407.0,STARLINK-4537,PAYLOAD,2024-01-07 09:54:49,15.08842212,0.0001733,53.218,61.0243,128.3812,231.7336,1.6666e-05,-2.3e-07,0.0,0 STARLINK-4537,1 53407U 22097V   24007.41307670 -.00000023  00000-0  16666-4 0  9995,2 53407  53.2180  61.0243 0001733 128.3812 231.7336 15.08842212 79188,6917.874,95.437,540.937,538.54,0.0
53407.0,STARLINK-4537,PAYLOAD,2024-01-08 09:45:36,15.08843859,0.0001589,53.2187,56.5651,97.3509,262.7664,6.4782e-05,7.43e-06,0.0,0 STARLINK-4537,1 53407U 22097V   24008.40667422  .00000743  00000-0  64782-4 0  9999,2 53407  53.2187  56.5651 0001589  97.3509 262.7664 15.08843859 78842,6917.869,95.437,540.833,538.634,0.0
53407.0,STARLINK-4537,PAYLOAD,2024-01-09 09:36:24,15.0883967,0.0001463,53.2179,52.1064,103.5082,256.6073,-2.7334e-05,-7.23e-06,0.0,0 STARLINK-4537,1 53407U 22097V   24009.40027965 -.00000723  00000-0 -27334-4 0  9994,2 53407  53.2179  52.1064 0001463 103.5082 256.6073 15.08839670 78998,6917.881,95.438,540.758,538.734,0.0
53407.0,STARLINK-4537,PAYLOAD,2024-01-10 07:51:48,15.08838994,0.0001422,53.2172,47.9413,93.7634,266.3521,-5.2557e-05,-1.124e-05,0.0,0 STARLINK-4537,1 53407U 22097V   24010.32764324 -.00001124  00000-0 -52557-4 0  9995,2 53407  53.2172  47.9413 0001422  93.7634 266.3521 15.08838994 79624,6917.883,95.438,540.732,538.765,0.0
53407.0,STARLINK-4537,PAYLOAD,2024-01-10 22:10:16,15.08834854,0.0001506,53.2173,45.2646,99.0947,261.0215,9.2192e-05,1.179e-05,0.0,0 STARLINK-4537,1 53407U 22097V   24010.92380201  .00001179  00000-0  92192-4 0  9996,2 53407  53.2173  45.2646 0001506  99.0947 261.0215 15.08834854 79222,6917.896,95.438,540.803,538.719,0.0
53407.0,STARLINK-4537,PAYLOAD,2024-01-11 09:17:58,15.08840704,0.0001573,53.2176,43.1833,106.7455,253.371,0.0001314,1.804e-05,0.0,0 STARLINK-4537,1 53407U 22097V   24011.38747811  .00001804  00000-0  13140-3 0  9991,2 53407  53.2176  43.1833 0001573 106.7455 253.3710 15.08840704 79780,6917.878,95.438,540.831,538.655,0.0
53407.0,STARLINK-4537,PAYLOAD,2024-01-12 10:44:08,15.08839706,0.0001586,53.2188,38.4231,95.7307,264.3866,4.0947e-05,3.64e-06,0.0,0 STARLINK-4537,1 53407U 22097V   24012.44732506  .00000364  00000-0  40947-4 0  9990,2 53407  53.2188  38.4231 0001586  95.7307 264.3866 15.08839706 79457,6917.881,95.438,540.843,538.649,0.0
53407.0,STARLINK-4537,PAYLOAD,2024-01-13 08:59:32,15.08841898,0.0001706,53.2185,34.2641,86.9964,273.1223,5.1588e-05,5.33e-06,0.0,0 STARLINK-4537,1 53407U 22097V   24013.37468617  .00000533  00000-0  51588-4 0  9993,2 53407  53.2185  34.2641 0001706  86.9964 273.1223 15.08841898 80089,6917.875,95.437,540.92,538.559,0.0
